STARLINK-1015
1 14721C 19074J   21326.16423189  .00004315  00000-0  28907-3 0  3263
2 14721  53.0543  27.9942 0001381  66.9269 151.5033 15.06400089    16
